[{"OBJECT_NAME":"TOMORROW-S2","OBJECT_ID":"2024-149T","EPOCH":"2026-03-09T18:02:42.746496","MEAN_MOTION":15.30674935,"ECCENTRICITY":0.0001648,"INCLINATION":97.3857,"RA_OF_ASC_NODE":150.0385,"ARG_OF_PERICENTER":234.3331,"MEAN_ANOMALY":125.7757,"EPHEMERIS_TYPE":0,"CLASSIFICATION_TYPE":"U","NORAD_CAT_ID":60485,"ELEMENT_SET_NO":999,"REV_AT_EPOCH":8686,"BSTAR":0.00027683033,"MEAN_MOTION_DOT":8.133e-5,"MEAN_MOTION_DDOT":0},{"OBJECT_NAME":"STARLINK-34808","OBJECT_ID":"2025-216M","EPOCH":"2026-03-09T23:29:47.050656","MEAN_MOTION":15.30216272,"ECCENTRICITY":0.00016809,"INCLINATION":53.1615,"RA_OF_ASC_NODE":331.1376,"ARG_OF_PERICENTER":133.4265,"MEAN_ANOMALY":226.6876,"EPHEMERIS_TYPE":0,"CLASSIFICATION_TYPE":"U","NORAD_CAT_ID":65745,"ELEMENT_SET_NO":999,"REV_AT_EPOCH":2656,"BSTAR":0.00077027856,"MEAN_MOTION_DOT":0.00022535,"MEAN_MOTION_DDOT":0}]
